STARLINK-1227           
1 45230U 20012BE  26068.18453812  .00001087  00000+0  47655-4 0  9999
2 45230  53.1607   1.2165 0001062  82.0274 278.0847 15.31040019335455
TOMORROW-S1             
1 60479U 24149M   26068.72470524  .00008620  00000+0  28856-3 0  9996
2 60479  97.3791 149.6044 0001819 207.2040 152.9106 15.31198362 86867
